STARLINK-11125 [DTC]    
1 59753U 24091A   24165.50728514  .00114649  00000+0  69675-3 0  9995
2 59753  53.1611  93.6106 0000843  46.2535 313.8556 15.76674534  5894
STARLINK-11118 [DTC]    
1 59754U 24091B   24165.50824919  .00049642  00000+0  30576-3 0  9990
2 59754  53.1611  93.6124 0001264 137.8459 222.2660 15.76711584  5891
STARLINK-11132 [DTC]    
1 59755U 24091C   24165.50599494 -.00031788  00000+0 -19134-3 0  9999
2 59755  53.1614  93.5978 0001088  95.7410 264.3735 15.76682811  5894
STARLINK-11131 [DTC]    
1 59756U 24091D   24165.50403298  .00048515  00000+0  29751-3 0  9996
2 59756  53.1612  93.5860 0000674  86.3534 273.7564 15.76821288  5893
STARLINK-11114 [DTC]    
1 59757U 24091E   24165.50200075  .00027248  00000+0  16998-3 0  9994
2 59757  53.1609  93.5714 0000905 190.4865 169.6137 15.76723749  5891
STARLINK-11105 [DTC]    
1 59758U 24091F   24165.49998104  .00038142  00000+0  23552-3 0  9999
2 59758  53.1608  93.5556 0000492 115.2289 244.8783 15.76774164  5891
STARLINK-11097 [DTC]    
1 59759U 24091G   24165.18104600  .00066022  00000+0  40423-3 0  9990
2 59759  53.1602  95.1214 0001454  91.6165 268.5022 15.76730048  5841
STARLINK-11098 [DTC]    
1 59760U 24091H   24165.17907011  .00129757  00000+0  78356-3 0  9999
2 59760  53.1591  95.1077 0001212 103.6694 256.4462 15.76763223  5845
STARLINK-11117 [DTC]    
1 59761U 24091J   24165.05024851  .00059777  00000+0  36656-3 0  9990
2 59761  53.1590  95.7240 0001238  96.3354 263.7808 15.76734990  5824
STARLINK-11110 [DTC]    
1 59762U 24091K   24165.17499295  .00053451  00000+0  32830-3 0  9995
2 59762  53.1588  95.0790 0001152  97.9273 262.1879 15.76743959  5845
STARLINK-11104 [DTC]    
1 59763U 24091L   24165.23636535  .00127057  00000+0  76522-3 0  9993
2 59763  53.1585  94.7490 0001040 142.9601 217.1491 15.76832992  5855
STARLINK-11111 [DTC]    
1 59764U 24091M   24165.23232370  .00001930  00000+0  15804-4 0  9991
2 59764  53.1588  94.7194 0001477 120.0358 240.0809 15.76711542  5855
STARLINK-11106 [DTC]    
1 59765U 24091N   24165.10761616  .00139317  00000+0  83910-3 0  9991
2 59765  53.1588  95.3672 0001625  16.9740 343.1335 15.76788435  5839
STARLINK-31739          
1 59766U 24091P   24165.08129136  .00000035  00000+0  86989-5 0  9999
2 59766  53.1596  97.3771 0001387  91.2566 268.8602 15.49315007  5806
STARLINK-31828          
1 59767U 24091Q   24165.33335648 -.00082931  00000+0 -14956-2 0  9994
2 59767  53.1587  96.1892 0001045  97.2937 223.7674 15.49371177  5671
STARLINK-31826          
1 59768U 24091R   24165.58334491  .00048467  00000+0  12178-2 0  9995
2 59768  53.1598  95.1173 0002065 169.3373  43.9954 15.39522990  5968
STARLINK-31830          
1 59769U 24091S   24165.58334491 -.02195918  00000+0 -56291-1 0  9997
2 59769  53.1595  95.0223 0000733  86.0266 174.0779 15.42097106  5711
STARLINK-31829          
1 59770U 24091T   24165.58334491  .00004723  00000+0  12802-3 0  9990
2 59770  53.1589  95.2711 0001129  99.1051  36.4011 15.39612249  5703
STARLINK-31786          
1 59771U 24091U   24165.21099627 -.00008774  00000+0 -14992-3 0  9994
2 59771  53.1598  96.7689 0001472  89.9945 270.1233 15.49297068  5829
STARLINK-31835          
1 59772U 24091V   24165.08094071  .00003996  00000+0  79829-4 0  9998
2 59772  53.1598  97.3798 0001543 119.6208 240.4955 15.49328160  5807
COSMOS 2576             
1 59773U 24092A   24165.59478683  .00026715  00000+0  68056-3 0  9994
2 59773  97.2255 277.5793 0008909 221.1648 138.8927 15.39490236  4265
2024-092B               
1 59774U 24092B   24165.59877992  .00008430  00000+0  53376-3 0  9994
2 59774  97.5906 277.4750 0012796 203.8314 156.2324 15.09154984  4146
2024-092C               
1 59775U 24092C   24165.59575255  .00008750  00000+0  55131-3 0  9998
2 59775  97.6033 277.5365 0012741 207.2066 152.8496 15.09325481  4159
2024-092D               
1 59776U 24092D   24165.55186502  .00008083  00000+0  52644-3 0  9993
2 59776  97.5987 277.4209 0013057 181.6794 178.4393 15.08127188  4149
2024-092E               
1 59777U 24092E   24165.55177321  .00008251  00000+0  53723-3 0  9999
2 59777  97.5987 277.4209 0013368 182.2923 177.8246 15.08128044  4148
2024-092F               
1 59778U 24092F   24165.61709689  .00008093  00000+0  52629-3 0  9993
2 59778  97.5982 277.4867 0013612 183.2117 176.9026 15.08179283  4150
2024-092G               
1 59779U 24092G   24165.54750992  .00000324  00000+0  13950-3 0  9992
2 59779  98.6089 277.4736 0011807 202.9285 157.1372 14.31085464  3937
2024-092H               
1 59780U 24092H   24165.54740953  .00000319  00000+0  13764-3 0  9997
2 59780  98.6088 277.4735 0012162 203.8217 156.2404 14.31090614  3936
2024-092J               
1 59781U 24092J   24165.54723686 -.00001527  00000+0 -56222-3 0  9992
2 59781  98.6092 277.4736 0012043 204.0227 156.0395 14.31094293  3939
STARLINK-31363          
1 59782U 24093A   24165.58334491 -.00990729  00000+0 -17966-1 0  9991
2 59782  42.9994 218.5780 0001330 274.1475 181.8490 15.51368690  5424
STARLINK-31868          
1 59783U 24093B   24165.21830449  .00122049  00000+0  95848-3 0  9993
2 59783  42.9975 221.2655 0002524 271.3768  88.6811 15.70391856  5327
STARLINK-31848          
1 59784U 24093C   24165.58334491 -.02125363  00000+0 -50496-1 0  9994
2 59784  42.9995 219.8086 0001358 275.9528  48.9265 15.44562373  5438
STARLINK-31890          
1 59785U 24093D   24164.91667824 -.02066977  00000+0 -41863-1 0  9993
2 59785  42.9998 223.6677 0001647 252.0182 321.9874 15.49021002  5258
STARLINK-31862          
1 59786U 24093E   24165.58334491 -.02125630  00000+0 -43647-1 0  9993
2 59786  42.9996 219.7636 0001754 282.4131  60.7441 15.48732483  5280
STARLINK-31870          
1 59787U 24093F   24165.58334491 -.02128706  00000+0 -45919-1 0  9995
2 59787  42.9996 219.7750 0001432 272.6297  65.9163 15.47344539  5384
STARLINK-31888          
1 59788U 24093G   24165.58334491 -.01406007  00000+0 -26344-1 0  9999
2 59788  42.9996 219.7506 0001681 290.3612  57.8453 15.50994266  5382
STARLINK-31863          
1 59789U 24093H   24165.58334491 -.02134543  00000+0 -41728-1 0  9997
2 59789  42.9995 219.7560 0001460 273.4745  72.8104 15.50128577  5436
STARLINK-31873          
1 59790U 24093J   24165.58334491  .00123650  00000+0  20850-2 0  9996
2 59790  42.9996 219.7457 0001493 287.1674  63.0326 15.50516591  5427
STARLINK-31865          
1 59791U 24093K   24165.58334491  .00097021  00000+0  16432-2 0  9990
2 59791  42.9996 219.7409 0001372 282.8119  69.3313 15.50510000  5432
STARLINK-31893          
1 59792U 24093L   24165.58334491  .00059314  00000+0  10103-2 0  9993
2 59792  42.9995 219.7359 0001698 283.7226  70.3068 15.50548675  5445
STARLINK-31901          
1 59793U 24093M   24165.58334491  .00060764  00000+0  10344-2 0  9992
2 59793  42.9995 219.7302 0001674 273.5286  82.4050 15.50555609  5429
STARLINK-31823          
1 59794U 24093N   24165.58334491  .00049656  00000+0  84770-3 0  9995
2 59794  42.9996 219.7259 0001432 286.6631  71.1953 15.50551643  5435
STARLINK-31916          
1 59795U 24093P   24165.58334491  .00031290  00000+0  53741-3 0  9995
2 59795  42.9995 219.7209 0001253 283.6699  76.1025 15.50560364  5437
STARLINK-31907          
1 59797U 24093R   24165.58334491  .00036561  00000+0  62658-3 0  9990
2 59797  42.9995 219.7155 0001265 286.1731  75.5153 15.50557927  5387
STARLINK-31687          
1 59798U 24093S   24165.58334491  .00018955  00000+0  32833-3 0  9990
2 59798  42.9995 219.6761 0001475 272.6288 104.3933 15.50562200  5433
STARLINK-31810          
1 59799U 24093T   24165.58334491  .00061447  00000+0  10462-2 0  9998
2 59799  42.9995 219.6911 0001497 283.3254  87.9499 15.50546852  5424
STARLINK-31812          
1 59800U 24093U   24165.58334491  .00041540  00000+0  71070-3 0  9996
2 59800  42.9995 219.7061 0001670 287.4814  78.0387 15.50556616  5486
STARLINK-31815          
1 59801U 24093V   24165.58334491  .00040548  00000+0  69404-3 0  9992
2 59801  42.9995 219.7012 0001452 288.5048  78.9374 15.50553262  5425
STARLINK-31814          
1 59802U 24093W   24165.42787567 -.00019130  00000+0 -20159-3 0  9991
2 59802  42.9971 220.2616 0002664 218.8231 141.2442 15.62941301  5353
STARLINK-31794          
1 59803U 24093X   24165.58334491  .00039550  00000+0  67718-3 0  9991
2 59803  42.9995 219.6814 0001555 284.8684  90.2386 15.50553163  5481
STARLINK-31824          
1 59804U 24093Y   24165.58334491  .00026406  00000+0  45470-3 0  9999
2 59804  42.9995 219.6869 0001312 265.6385 107.5477 15.50561279  5387
2024-094A               
1 59805U 24094A   24165.60782383  .00014153  00000+0  59448-3 0  9997
2 59805  97.4713 236.4080 0009190 190.1973 169.9079 15.23516527  3722
2024-094B               
1 59806U 24094B   24165.59001456  .00014593  00000+0  58772-3 0  9998
2 59806  97.4708 236.4300 0011991 196.7723 163.3119 15.24898992  3711
2024-094C               
1 59807U 24094C   24165.59372054  .00014307  00000+0  58030-3 0  9994
2 59807  97.4722 236.4297 0012217 191.5874 168.5084 15.24663448  3719
2024-094D               
1 59808U 24094D   24165.61620938  .00013164  00000+0  57200-3 0  9993
2 59808  97.4704 236.3948 0007751 229.1232 130.9333 15.22392390  3718
2024-092K               
1 59809U 24092K   24165.55176013  .00007831  00000+0  51020-3 0  9993
2 59809  97.5981 277.4189 0013623 182.4870 177.6292 15.08118901  3646
2024-095A               
1 59810U 24095A   24165.58765894  .00006852  00000+0  40481-3 0  9993
2 59810  97.6006 240.8334 0011132 184.4449 175.6684 15.11770856  3549
2024-095B               
1 59811U 24095B   24165.58837189  .00002828  00000+0  17022-3 0  9995
2 59811  97.6014 240.8376 0010819 187.0142 173.0938 15.11606322  3545
2024-095C               
1 59812U 24095C   24165.58234033  .00011036  00000+0  64128-3 0  9995
2 59812  97.5995 240.8342 0010367 191.0271 169.0733 15.12226545  3546
2024-095D               
1 59813U 24095D   24165.57860287  .00011968  00000+0  69009-3 0  9998
2 59813  97.5997 240.8409 0009346 190.1197 169.9847 15.12490702  3548
STARLINK-31947          
1 59835U 24097A   24165.58334491 -.02187897  00000+0 -47589-1 0  9994
